ORBCOMM FM37            
1 33064U 08031E   25365.07908918  .00004040  00000+0  54693-3 0  9998
2 33064  48.4375 127.0169 0004909 151.0156  19.2337 14.80687177943219
ORBCOMM FM40            
1 33065U 08031F   25364.67103576  .00005022  00000+0  63393-3 0  9999
2 33065  48.4397 109.5367 0006013 166.1328 336.9227 14.83211739943313
VESSELSAT 1             
1 37840U 11058C   25365.06933646  .00000439  00000+0  94698-4 0  9990
2 37840  19.9636 342.5104 0013643 191.6802 168.3287 14.11402866734159
ORBCOMM FM109           
1 40086U 14040A   25364.46917487  .00001405  00000+0  33545-3 0  9995
2 40086  47.0014 169.0312 0001810 181.1993 178.8888 14.58577253609718
ORBCOMM FM107           
1 40087U 14040B   25364.83001578  .00001274  00000+0  30705-3 0  9991
2 40087  47.0032 168.2072 0000666 129.6043 230.4901 14.58653633609846
ORBCOMM FM106           
1 40088U 14040C   25364.42357829  .00002223  00000+0  39659-3 0  9992
2 40088  47.0616 336.3746 0017255 260.5322  99.3619 14.70085120612349
ORBCOMM FM111           
1 40089U 14040D   25364.75199948  .00006102  00000+0  67836-3 0  9993
2 40089  46.9983 157.8360 0027759  54.2762 306.0713 14.87840699619482
ORBCOMM FM104           
1 40090U 14040E   25365.03567861  .00001079  00000+0  27474-3 0  9992
2 40090  47.0030 203.2290 0015969  23.5935 336.5679 14.57039469609321
